ONEWEB-0198             
1 48216U 21031G   24040.54184029  .00000267  00000+0  68615-3 0  9994
2 48216  87.8941 100.6344 0001711  85.3957 274.7368 13.14502240135687
ONEWEB-0189             
1 48217U 21031H   24041.16346189  .00000351  00000+0  91201-3 0  9992
2 48217  87.8939 100.4862 0001624  84.4534 275.6781 13.14501639135503
ONEWEB-0196             
1 48218U 21031J   24041.14126497  .00000222  00000+0  56500-3 0  9999
2 48218  87.8940 100.4918 0001881  93.4004 266.7341 13.14502103135493
ONEWEB-0183             
1 48219U 21031K   24041.11588710 -.00000115  00000+0 -34437-3 0  9995
2 48219  87.8941 100.5149 0001771 101.5709 258.5619 13.14502511135594
ONEWEB-0185             
1 48220U 21031L   24040.53311087  .00000261  00000+0  66904-3 0  9997
2 48220  87.8940 100.6047 0001638 101.4467 258.6847 13.14501843135440
ONEWEB-0187             
1 48221U 21031M   24040.65521422 -.00000175  00000+0 -50588-3 0  9994
2 48221  87.8942 100.6108 0001720 102.7101 257.4221 13.14501859135475
ONEWEB-0192             
1 48222U 21031N   24041.16821899  .00000095  00000+0  22094-3 0  9993
2 48222  87.8939 100.5054 0001845  94.9132 265.2208 13.14501933135469
ONEWEB-0219             
1 48223U 21031P   24040.53866425  .00000105  00000+0  24866-3 0  9999
2 48223  87.8941 100.6060 0001603  99.5491 260.5820 13.14502195135573
