<?xml version="1.0" encoding="UTF-8"?>
<ndm xmlns:xsi="http://www.w3.org/2001/XMLSchema-instance" xsi:noNamespaceSchemaLocation="https://sanaregistry.org/r/ndmxml_unqualified/ndmxml-2.0.0-master-2.0.xsd">
<omm id="CCSDS_OMM_VERS" version="2.0">
<header><CREATION_DATE/><ORIGINATOR/></header><body><segment><metadata><OBJECT_NAME>ONEWEB-0198</OBJECT_NAME><OBJECT_ID>2021-031G</OBJECT_ID><CENTER_NAME>EARTH</CENTER_NAME><REF_FRAME>TEME</REF_FRAME><TIME_SYSTEM>UTC</TIME_SYSTEM><MEAN_ELEMENT_THEORY>SGP4</MEAN_ELEMENT_THEORY></metadata><data><meanElements><EPOCH>2024-02-09T13:00:15.001056</EPOCH><MEAN_MOTION>13.14502240</MEAN_MOTION><ECCENTRICITY>.0001711</ECCENTRICITY><INCLINATION>87.8941</INCLINATION><RA_OF_ASC_NODE>100.6344</RA_OF_ASC_NODE><ARG_OF_PERICENTER>85.3957</ARG_OF_PERICENTER><MEAN_ANOMALY>274.7368</MEAN_ANOMALY></meanElements><tleParameters><EPHEMERIS_TYPE>0</EPHEMERIS_TYPE><CLASSIFICATION_TYPE>U</CLASSIFICATION_TYPE><NORAD_CAT_ID>48216</NORAD_CAT_ID><ELEMENT_SET_NO>999</ELEMENT_SET_NO><REV_AT_EPOCH>13568</REV_AT_EPOCH><BSTAR>.68615E-3</BSTAR><MEAN_MOTION_DOT>.267E-5</MEAN_MOTION_DOT><MEAN_MOTION_DDOT>0</MEAN_MOTION_DDOT></tleParameters></data></segment></body></omm>
<omm id="CCSDS_OMM_VERS" version="2.0">
<header><CREATION_DATE/><ORIGINATOR/></header><body><segment><metadata><OBJECT_NAME>ONEWEB-0189</OBJECT_NAME><OBJECT_ID>2021-031H</OBJECT_ID><CENTER_NAME>EARTH</CENTER_NAME><REF_FRAME>TEME</REF_FRAME><TIME_SYSTEM>UTC</TIME_SYSTEM><MEAN_ELEMENT_THEORY>SGP4</MEAN_ELEMENT_THEORY></metadata><data><meanElements><EPOCH>2024-02-10T03:55:23.107296</EPOCH><MEAN_MOTION>13.14501639</MEAN_MOTION><ECCENTRICITY>.0001624</ECCENTRICITY><INCLINATION>87.8939</INCLINATION><RA_OF_ASC_NODE>100.4862</RA_OF_ASC_NODE><ARG_OF_PERICENTER>84.4534</ARG_OF_PERICENTER><MEAN_ANOMALY>275.6781</MEAN_ANOMALY></meanElements><tleParameters><EPHEMERIS_TYPE>0</EPHEMERIS_TYPE><CLASSIFICATION_TYPE>U</CLASSIFICATION_TYPE><NORAD_CAT_ID>48217</NORAD_CAT_ID><ELEMENT_SET_NO>999</ELEMENT_SET_NO><REV_AT_EPOCH>13550</REV_AT_EPOCH><BSTAR>.91201E-3</BSTAR><MEAN_MOTION_DOT>.351E-5</MEAN_MOTION_DOT><MEAN_MOTION_DDOT>0</MEAN_MOTION_DDOT></tleParameters></data></segment></body></omm>
<omm id="CCSDS_OMM_VERS" version="2.0">
<header><CREATION_DATE/><ORIGINATOR/></header><body><segment><metadata><OBJECT_NAME>ONEWEB-0196</OBJECT_NAME><OBJECT_ID>2021-031J</OBJECT_ID><CENTER_NAME>EARTH</CENTER_NAME><REF_FRAME>TEME</REF_FRAME><TIME_SYSTEM>UTC</TIME_SYSTEM><MEAN_ELEMENT_THEORY>SGP4</MEAN_ELEMENT_THEORY></metadata><data><meanElements><EPOCH>2024-02-10T03:23:25.293408</EPOCH><MEAN_MOTION>13.14502103</MEAN_MOTION><ECCENTRICITY>.0001881</ECCENTRICITY><INCLINATION>87.8940</INCLINATION><RA_OF_ASC_NODE>100.4918</RA_OF_ASC_NODE><ARG_OF_PERICENTER>93.4004</ARG_OF_PERICENTER><MEAN_ANOMALY>266.7341</MEAN_ANOMALY></meanElements><tleParameters><EPHEMERIS_TYPE>0</EPHEMERIS_TYPE><CLASSIFICATION_TYPE>U</CLASSIFICATION_TYPE><NORAD_CAT_ID>48218</NORAD_CAT_ID><ELEMENT_SET_NO>999</ELEMENT_SET_NO><REV_AT_EPOCH>13549</REV_AT_EPOCH><BSTAR>.565E-3</BSTAR><MEAN_MOTION_DOT>.222E-5</MEAN_MOTION_DOT><MEAN_MOTION_DDOT>0</MEAN_MOTION_DDOT></tleParameters></data></segment></body></omm>
<omm id="CCSDS_OMM_VERS" version="2.0">
<header><CREATION_DATE/><ORIGINATOR/></header><body><segment><metadata><OBJECT_NAME>ONEWEB-0183</OBJECT_NAME><OBJECT_ID>2021-031K</OBJECT_ID><CENTER_NAME>EARTH</CENTER_NAME><REF_FRAME>TEME</REF_FRAME><TIME_SYSTEM>UTC</TIME_SYSTEM><MEAN_ELEMENT_THEORY>SGP4</MEAN_ELEMENT_THEORY></metadata><data><meanElements><EPOCH>2024-02-10T02:46:52.645440</EPOCH><MEAN_MOTION>13.14502511</MEAN_MOTION><ECCENTRICITY>.0001771</ECCENTRICITY><INCLINATION>87.8941</INCLINATION><RA_OF_ASC_NODE>100.5149</RA_OF_ASC_NODE><ARG_OF_PERICENTER>101.5709</ARG_OF_PERICENTER><MEAN_ANOMALY>258.5619</MEAN_ANOMALY></meanElements><tleParameters><EPHEMERIS_TYPE>0</EPHEMERIS_TYPE><CLASSIFICATION_TYPE>U</CLASSIFICATION_TYPE><NORAD_CAT_ID>48219</NORAD_CAT_ID><ELEMENT_SET_NO>999</ELEMENT_SET_NO><REV_AT_EPOCH>13559</REV_AT_EPOCH><BSTAR>-.34437E-3</BSTAR><MEAN_MOTION_DOT>-.115E-5</MEAN_MOTION_DOT><MEAN_MOTION_DDOT>0</MEAN_MOTION_DDOT></tleParameters></data></segment></body></omm>
<omm id="CCSDS_OMM_VERS" version="2.0">
<header><CREATION_DATE/><ORIGINATOR/></header><body><segment><metadata><OBJECT_NAME>ONEWEB-0185</OBJECT_NAME><OBJECT_ID>2021-031L</OBJECT_ID><CENTER_NAME>EARTH</CENTER_NAME><REF_FRAME>TEME</REF_FRAME><TIME_SYSTEM>UTC</TIME_SYSTEM><MEAN_ELEMENT_THEORY>SGP4</MEAN_ELEMENT_THEORY></metadata><data><meanElements><EPOCH>2024-02-09T12:47:40.779168</EPOCH><MEAN_MOTION>13.14501843</MEAN_MOTION><ECCENTRICITY>.0001638</ECCENTRICITY><INCLINATION>87.8940</INCLINATION><RA_OF_ASC_NODE>100.6047</RA_OF_ASC_NODE><ARG_OF_PERICENTER>101.4467</ARG_OF_PERICENTER><MEAN_ANOMALY>258.6847</MEAN_ANOMALY></meanElements><tleParameters><EPHEMERIS_TYPE>0</EPHEMERIS_TYPE><CLASSIFICATION_TYPE>U</CLASSIFICATION_TYPE><NORAD_CAT_ID>48220</NORAD_CAT_ID><ELEMENT_SET_NO>999</ELEMENT_SET_NO><REV_AT_EPOCH>13544</REV_AT_EPOCH><BSTAR>.66904E-3</BSTAR><MEAN_MOTION_DOT>.261E-5</MEAN_MOTION_DOT><MEAN_MOTION_DDOT>0</MEAN_MOTION_DDOT></tleParameters></data></segment></body></omm>
<omm id="CCSDS_OMM_VERS" version="2.0">
<header><CREATION_DATE/><ORIGINATOR/></header><body><segment><metadata><OBJECT_NAME>ONEWEB-0187</OBJECT_NAME><OBJECT_ID>2021-031M</OBJECT_ID><CENTER_NAME>EARTH</CENTER_NAME><REF_FRAME>TEME</REF_FRAME><TIME_SYSTEM>UTC</TIME_SYSTEM><MEAN_ELEMENT_THEORY>SGP4</MEAN_ELEMENT_THEORY></metadata><data><meanElements><EPOCH>2024-02-09T15:43:30.508608</EPOCH><MEAN_MOTION>13.14501859</MEAN_MOTION><ECCENTRICITY>.000172</ECCENTRICITY><INCLINATION>87.8942</INCLINATION><RA_OF_ASC_NODE>100.6108</RA_OF_ASC_NODE><ARG_OF_PERICENTER>102.7101</ARG_OF_PERICENTER><MEAN_ANOMALY>257.4221</MEAN_ANOMALY></meanElements><tleParameters><EPHEMERIS_TYPE>0</EPHEMERIS_TYPE><CLASSIFICATION_TYPE>U</CLASSIFICATION_TYPE><NORAD_CAT_ID>48221</NORAD_CAT_ID><ELEMENT_SET_NO>999</ELEMENT_SET_NO><REV_AT_EPOCH>13547</REV_AT_EPOCH><BSTAR>-.50588E-3</BSTAR><MEAN_MOTION_DOT>-.175E-5</MEAN_MOTION_DOT><MEAN_MOTION_DDOT>0</MEAN_MOTION_DDOT></tleParameters></data></segment></body></omm>
<omm id="CCSDS_OMM_VERS" version="2.0">
<header><CREATION_DATE/><ORIGINATOR/></header><body><segment><metadata><OBJECT_NAME>ONEWEB-0192</OBJECT_NAME><OBJECT_ID>2021-031N</OBJECT_ID><CENTER_NAME>EARTH</CENTER_NAME><REF_FRAME>TEME</REF_FRAME><TIME_SYSTEM>UTC</TIME_SYSTEM><MEAN_ELEMENT_THEORY>SGP4</MEAN_ELEMENT_THEORY></metadata><data><meanElements><EPOCH>2024-02-10T04:02:14.120736</EPOCH><MEAN_MOTION>13.14501933</MEAN_MOTION><ECCENTRICITY>.0001845</ECCENTRICITY><INCLINATION>87.8939</INCLINATION><RA_OF_ASC_NODE>100.5054</RA_OF_ASC_NODE><ARG_OF_PERICENTER>94.9132</ARG_OF_PERICENTER><MEAN_ANOMALY>265.2208</MEAN_ANOMALY></meanElements><tleParameters><EPHEMERIS_TYPE>0</EPHEMERIS_TYPE><CLASSIFICATION_TYPE>U</CLASSIFICATION_TYPE><NORAD_CAT_ID>48222</NORAD_CAT_ID><ELEMENT_SET_NO>999</ELEMENT_SET_NO><REV_AT_EPOCH>13546</REV_AT_EPOCH><BSTAR>.22094E-3</BSTAR><MEAN_MOTION_DOT>.95E-6</MEAN_MOTION_DOT><MEAN_MOTION_DDOT>0</MEAN_MOTION_DDOT></tleParameters></data></segment></body></omm>
<omm id="CCSDS_OMM_VERS" version="2.0">
<header><CREATION_DATE/><ORIGINATOR/></header><body><segment><metadata><OBJECT_NAME>ONEWEB-0219</OBJECT_NAME><OBJECT_ID>2021-031P</OBJECT_ID><CENTER_NAME>EARTH</CENTER_NAME><REF_FRAME>TEME</REF_FRAME><TIME_SYSTEM>UTC</TIME_SYSTEM><MEAN_ELEMENT_THEORY>SGP4</MEAN_ELEMENT_THEORY></metadata><data><meanElements><EPOCH>2024-02-09T12:55:40.591200</EPOCH><MEAN_MOTION>13.14502195</MEAN_MOTION><ECCENTRICITY>.0001603</ECCENTRICITY><INCLINATION>87.8941</INCLINATION><RA_OF_ASC_NODE>100.6060</RA_OF_ASC_NODE><ARG_OF_PERICENTER>99.5491</ARG_OF_PERICENTER><MEAN_ANOMALY>260.5820</MEAN_ANOMALY></meanElements><tleParameters><EPHEMERIS_TYPE>0</EPHEMERIS_TYPE><CLASSIFICATION_TYPE>U</CLASSIFICATION_TYPE><NORAD_CAT_ID>48223</NORAD_CAT_ID><ELEMENT_SET_NO>999</ELEMENT_SET_NO><REV_AT_EPOCH>13557</REV_AT_EPOCH><BSTAR>.24866E-3</BSTAR><MEAN_MOTION_DOT>.105E-5</MEAN_MOTION_DOT><MEAN_MOTION_DDOT>0</MEAN_MOTION_DDOT></tleParameters></data></segment></body></omm>

</ndm>
